[{"OBJECT_NAME":"YUNHAI-2 02C","OBJECT_ID":"2024-052C","EPOCH":"2026-03-09T21:21:30.207744","MEAN_MOTION":14.27924657,"ECCENTRICITY":0.00066764,"INCLINATION":50.0079,"RA_OF_ASC_NODE":203.2069,"ARG_OF_PERICENTER":173.1854,"MEAN_ANOMALY":186.9153,"EPHEMERIS_TYPE":0,"CLASSIFICATION_TYPE":"U","NORAD_CAT_ID":59282,"ELEMENT_SET_NO":999,"REV_AT_EPOCH":10061,"BSTAR":0.00014036663,"MEAN_MOTION_DOT":1.89e-6,"MEAN_MOTION_DDOT":0},{"OBJECT_NAME":"FENGYUN 1C DEB","OBJECT_ID":"1999-025CSU","EPOCH":"2026-03-07T21:14:13.818624","MEAN_MOTION":14.60913824,"ECCENTRICITY":0.01709309,"INCLINATION":99.182,"RA_OF_ASC_NODE":104.0364,"ARG_OF_PERICENTER":168.74,"MEAN_ANOMALY":191.77,"EPHEMERIS_TYPE":0,"CLASSIFICATION_TYPE":"U","NORAD_CAT_ID":32150,"ELEMENT_SET_NO":999,"REV_AT_EPOCH":98949,"BSTAR":0.00024028489,"MEAN_MOTION_DOT":1.378e-5,"MEAN_MOTION_DDOT":0}]
